[{"OBJECT_NAME":"NANOACE","OBJECT_ID":"2017-042V","EPOCH":"2026-03-09T10:49:24.913920","MEAN_MOTION":15.22047259,"ECCENTRICITY":0.0004338,"INCLINATION":97.3683,"RA_OF_ASC_NODE":244.5146,"ARG_OF_PERICENTER":18.2396,"MEAN_ANOMALY":341.8995,"EPHEMERIS_TYPE":0,"CLASSIFICATION_TYPE":"U","NORAD_CAT_ID":42844,"ELEMENT_SET_NO":999,"REV_AT_EPOCH":47289,"BSTAR":0.00068471795,"MEAN_MOTION_DOT":0.0001561,"MEAN_MOTION_DDOT":0},{"OBJECT_NAME":"CZ-4C R\/B","OBJECT_ID":"2022-106B","EPOCH":"2026-03-09T16:53:51.363744","MEAN_MOTION":15.02433181,"ECCENTRICITY":0.01103472,"INCLINATION":98.0511,"RA_OF_ASC_NODE":147.9459,"ARG_OF_PERICENTER":124.4586,"MEAN_ANOMALY":236.7124,"EPHEMERIS_TYPE":0,"CLASSIFICATION_TYPE":"U","NORAD_CAT_ID":53699,"ELEMENT_SET_NO":999,"REV_AT_EPOCH":19198,"BSTAR":0.00037068081,"MEAN_MOTION_DOT":5.536e-5,"MEAN_MOTION_DDOT":0}]
